P/2020 O1 (Lemmon-PANSTARRS),e,5.2259,175.9762,104.5256,2.644709,0.2291592,0.11932638,151.1256,02/21.0/2022,2000,g 15.5,4.0
# From MPEC 2022-CN4
C/2020 O2 (Amaral),h,08/28.6126/2021,71.7509,256.7572,10.3091,1.002335,4.862256,2000,8.0,3.2
# From MPEC 2020-SI8
P/2020 O3 (PANSTARRS),e,8.4422,266.8273,81.5837,4.650346,0.0982825,0.10390104,38.0140,02/21.0/2022,2000,g 12.0,4.0
# From MPEC 2021-BE3
C/2020 P1 (NEOWISE),h,10/20.2099/2020,45.0917,53.5162,8.8889,1.000272,0.341747,2000,14.0,3.2
# From MPEC 2022-CN4
C/2020 P3 (ATLAS),e,61.8859,19.4742,82.2520,38577,0.0000001,0.99982341,0.0000,04/20.8871/2021,2000,g  6.0,4.0
# From MPEC 2022-CN4
C/2020 PV6 (PANSTARRS),e,128.2391,329.1450,71.3852,41.81986,0.0036444,0.94510558,0.5393,02/21.0/2022,2000,g 10.0,4.0
# From MPEC 2021-N06
C/2020 Q1 (Borisov),e,142.9169,52.4143,9.9022,58.65279,0.0021942,0.97757855,0.0000,08/14.5614/2020,2000,g 14.0,4.0
# From MPEC 2022-C56
C/2020 R2 (PANSTARRS),e,53.2283,195.0935,211.7394,408.9618,0.0001192,0.98852737,0.0000,02/24.5279/2022,2000,g  9.0,4.0
# From MPEC 2022-CN4
C/2020 R4 (ATLAS),e,164.4623,323.2742,46.7206,98.80262,0.0010036,0.98958913,0.0000,03/01.9668/2021,2000,g 13.5,4.0
# From MPEC 2020-W26
P/2020 R5 (PANSTARRS),e,11.4515,272.9772,82.4545,4.983138,0.0886033,0.31471432,56.0909,02/21.0/2022,2000,g  9.5,6.0
# From MPEC 2021-Y10
C/2020 R6 (Rankin),e,82.8123,12.1780,272.0029,353.0082,0.0001486,0.99112937,0.0000,09/09.5358/2019,2000,g 11.0,4.0
# From MPEC 2022-A21
C/2020 R7 (ATLAS),h,09/16.2040/2022,114.8917,268.2806,347.8286,1.000007,2.955996,2000,7.0,3.2
# From MPEC 2021-BE3
P/2020 S1 (PANSTARRS),e,13.7333,129.4614,254.9295,5.985598,0.0673043,0.50750845,26.9100,02/21.0/2022,2000,g 14.0,4.0
# From MPEC 2021-BE3
C/2020 S2 (PANSTARRS),e,22.3995,197.6722,202.2960,10.19994,0.0302557,0.82782507,12.8888,02/21.0/2022,2000,g 17.0,4.0
# From MPEC 2022-C56
C/2020 S3 (Erasmus),e,19.9332,222.7849,349.9891,176.4745,0.0004204,0.99775112,0.0000,12/12.6695/2020,2000,g 13.5,3.2
# From MPEC 2022-CN4
C/2020 S4 (PANSTARRS),h,02/09.3366/2023,20.5731,117.7208,21.0096,1.000477,3.369444,2000,8.5,3.2
# From MPEC 2021-BE3
P/2020 S5 (PANSTARRS),e,12.3530,316.0017,53.1066,4.051521,0.1208584,0.33859387,67.8322,02/21.0/2022,2000,g 14.5,4.0
# From MPEC 2021-P47
P/2020 S6 (Leonard),e,15.4596,242.5528,176.6704,3.600124,0.1442872,0.47932553,65.5542,02/21.0/2022,2000,g 16.0,4.0
# From MPEC 2021-BE3
P/2020 S7 (PANSTARRS),e,16.0918,328.0201,40.4761,5.025934,0.0874740,0.41067974,40.2050,02/21.0/2022,2000,g 14.5,4.0
# From MPEC 2021-P47
C/2020 S8 (Lemmon),e,108.5245,24.0560,160.3287,275.3447,0.0002157,0.99141572,0.0000,04/10.9178/2021,2000,g 12.5,4.0
# From MPEC 2022-C56
C/2020 T2 (Palomar),e,27.8691,83.0424,150.4063,318.6856,0.0001732,0.99355182,0.0000,07/11.1860/2021,2000,g 11.0,3.2
# From MPEC 2021-N06
P/2020 T3 (PANSTARRS),e,7.2957,74.0070,357.0384,3.517476,0.1494023,0.59170380,59.2393,02/21.0/2022,2000,g 18.0,3.2
# From MPEC 2021-N06
C/2020 T4 (PANSTARRS),h,07/05.2616/2021,83.8167,50.6164,79.6104,1.000085,2.191891,2000,13.0,3.2
# From MPEC 2021-BE3
C/2020 T5 (Lemmon),e,66.5887,237.8592,90.3082,824.1624,0.0000417,0.99770733,0.0000,10/09.5991/2020,2000,g 16.0,4.0
# From MPEC 2021-N06
P/2020 U2 (PANSTARRS),e,6.4211,342.8991,84.6409,3.778126,0.1342114,0.51074766,56.6724,02/21.0/2022,2000,g 18.0,4.0
# From MPEC 2021-W31
C/2020 U3 (Rankin),e,30.1714,282.6763,124.2790,65.60565,0.0018548,0.96530352,0.7048,02/21.0/2022,2000,g 15.0,4.0
# From MPEC 2022-C56
C/2020 U4 (PANSTARRS),h,04/07.9565/2022,167.0359,120.0141,69.5310,1.001407,5.353688,2000,7.0,4.0
# From MPEC 2022-CN4
C/2020 U5 (PANSTARRS),e,97.2705,107.3370,75.4162,5929,0.0000022,0.99936652,0.0000,04/27.8828/2022,2000,g  8.0,4.0
# From MPEC 2022-CN4
C/2020 V2 (ZTF),h,05/08.4978/2023,131.6092,212.3624,162.4030,1.001183,2.228228,2000,4.9,4.0
# From MPEC 2021-N06
P/2020 V3 (PANSTARRS),e,23.0315,198.2625,249.3320,8.372036,0.0406872,0.25583449,15.3529,02/21.0/2022,2000,g  8.3,4.0
# From MPEC 2022-CN4
P/2020 V4 (Rankin),e,14.2429,203.4958,256.9929,9.351630,0.0344646,0.44945078,7.5204,02/21.0/2022,2000,g  9.0,4.0
# From MPEC 2021-BE3
P/2020 W1 (Rankin),e,10.7910,124.2642,264.9180,7.204727,0.0509657,0.26590189,34.9629,02/21.0/2022,2000,g 10.0,4.0
# From MPEC 2021-BE3
C/2020 W5 (Lemmon),h,11/30.0794/2020,88.5834,75.4994,24.4814,1.000750,3.364347,2000,15.0,4.0
# From MPEC 2021-P47
P/2020 X1 (ATLAS),e,31.6944,56.0165,323.3020,4.527538,0.1023083,0.36551335,59.3910,02/21.0/2022,2000,g 13.0,4.0
# From MPEC 2021-U31
C/2020 X2 (ATLAS),e,18.1883,105.4515,347.3412,16.41419,0.0148209,0.76678848,6.8499,02/21.0/2022,2000,g 10.6,4.0
# From MPEC 2021-S45
C/2020 X4 (Leonard),e,80.6348,161.8897,140.2943,42.26908,0.0035865,0.87656027,1.6534,02/21.0/2022,2000,g  9.0,4.0
# From MPEC 2022-C56
C/2020 Y2 (ATLAS),e,101.2967,26.5118,266.1001,1146,0.0000254,0.99726685,0.0000,06/17.6770/2022,2000,g  6.5,4.0
# From MPEC 2021-R75
C/2020 Y3 (ATLAS),e,83.1011,191.4347,342.0210,147.8629,0.0005482,0.98648234,0.0000,12/03.4359/2020,2000,g 13.5,4.0
# From MPEC 2022-C56
C/2021 A1 (Leonard),h,01/03.2990/2022,132.6864,255.8964,225.0925,1.000025,0.615256,2000,8.5,4.0
# From MPEC 2021-U31
C/2021 A2 (NEOWISE),e,106.9775,125.2326,338.8265,247.0930,0.0002538,0.99428291,0.0000,01/22.5964/2021,2000,g 13.5,4.0
# From MPEC 2021-R75
C/2021 A4 (NEOWISE),e,111.5568,307.0978,204.6963,43.02775,0.0034921,0.97335872,0.0000,03/20.0108/2021,2000,g 16.0,4.0
# From MPEC 2021-BE3
P/2021 A5 (PANSTARRS),e,18.1876,328.7680,61.2019,3.047078,0.1853014,0.13980795,86.3625,02/21.0/2022,2000,g 15.0,4.0
# From MPEC 2022-CN4
C/2021 A6 (PANSTARRS),e,75.6116,164.0793,351.6937,10819,0.0000009,0.99926715,0.0000,05/04.1525/2021,2000,g  7.0,4.0
# From MPEC 2022-CN4
C/2021 A7 (NEOWISE),e,78.1497,154.5178,356.0512,5388,0.0000025,0.99963481,0.0000,07/15.2978/2021,2000,g 10.0,4.0
# From MPEC 2022-CN4
C/2021 A9 (PANSTARRS),h,12/01.3867/2023,158.0258,314.8431,211.4600,1.003800,7.759679,2000,6.0,4.0
# From MPEC 2021-N06
C/2021 A10 (NEOWISE),e,151.5914,188.3849,82.4053,98.84409,0.0010029,0.98714362,0.0000,03/15.3642/2021,2000,g 19.0,4.0
# From MPEC 2022-CN4
C/2021 B2 (PANSTARRS),e,38.0910,120.5530,334.9677,351.2146,0.0001497,0.99284517,0.0000,05/04.2686/2021,2000,g 14.0,4.0
# From MPEC 2021-N06
C/2021 B3 (NEOWISE),e,119.4830,67.2866,293.5547,34.84721,0.0047913,0.93800946,1.6632,02/21.0/2022,2000,g 13.5,4.0
# From MPEC 2022-C56
C/2021 C1 (Rankin),e,143.0438,186.8958,336.2984,53259,0.0000001,0.99993464,0.0000,12/07.0999/2020,2000,g 11.5,4.0
# From MPEC 2021-U31
P/2021 C2 (PANSTARRS),e,21.9282,66.4799,78.7797,9.536679,0.0334663,0.48727131,12.1115,02/21.0/2022,2000,g 12.0,4.0
# From MPEC 2021-N06
C/2021 C3 (Catalina),e,122.1644,181.9249,357.1328,63.02645,0.0019698,0.96388785,0.7359,02/21.0/2022,2000,g 14.0,4.0
# From MPEC 2022-CN4
C/2021 C4 (ATLAS),e,132.8489,194.2755,320.2316,16740,0.0000005,0.99973094,0.0000,01/17.1009/2021,2000,g  9.0,4.0
# From MPEC 2022-CN4
C/2021 C5 (PANSTARRS),e,50.7849,323.6900,270.9179,4263,0.0000035,0.99923952,0.0000,02/11.0480/2023,2000,g  9.0,4.0
# From MPEC 2022-C56
C/2021 C6 (Lemmon),h,11/13.3122/2021,164.6257,332.1555,203.5593,1.001637,3.271203,2000,12.0,4.0
# From MPEC 2021-N06
C/2021 D1 (SWAN),e,31.4563,311.2690,72.2344,98.00580,0.0010158,0.99079798,0.0000,02/27.6348/2021,2000,g 13.0,4.0
# From MPEC 2022-C56
C/2021 D2 (ZTF),h,02/03.9821/2022,83.8305,305.6789,125.0301,1.001460,2.946301,2000,9.0,4.0
# From MPEC 2021-N06
A/2021 E2,e,167.4882,190.8178,342.4519,234.9851,0.0002736,0.99026468,0.0000,12/10.4648/2020,2000,g 15.0,2.0
# From MPEC 2022-A21
C/2021 E3 (ZTF),h,06/11.9070/2022,112.5559,104.4684,228.8457,1.000848,1.777424,2000,8.5,4.0
# From MPEC 2022-CN4
A/2021 E4,e,116.3609,171.1735,48.2786,694.9915,0.0000538,0.99327184,0.0000,04/25.3335/2022,2000,g 13.5,2.0
# From MPEC 2022-CN4
C/2021 F1 (Lemmon-PANSTARRS),e,107.3244,203.4515,146.8228,236.2464,0.0002714,0.99578625,0.0000,04/06.8737/2022,2000,g 13.5,4.0
# From MPEC 2021-J72
C/2021 G1 (Leonard),e,131.5628,270.6975,107.4763,75.09170,0.0015147,0.95440815,0.3239,02/21.0/2022,2000,g 14.0,4.0
# From MPEC 2022-CN4
C/2021 G2 (ATLAS),e,48.4729,221.1205,343.3702,3779,0.0000042,0.99868270,0.0000,09/10.0593/2024,2000,g  5.5,4.0
# From MPEC 2022-C56
C/2021 G3 (PANSTARRS),h,10/16.5542/2021,102.8551,147.4053,10.3989,1.000152,5.177988,2000,10.5,4.0
# From MPEC 2021-Y10
P/2021 HS (PANSTARRS),e,12.1710,262.3906,46.0855,4.194296,0.1147402,0.81010470,22.7897,02/21.0/2022,2000,g 22.0,4.0
# From MPEC 2022-C56
C/2021 J1 (Maury-Attard),e,92.7186,88.3227,147.3304,26.44889,0.0072459,0.93418294,2.6559,02/21.0/2022,2000,g 15.5,4.0
# From MPEC 2022-CN4
C/2021 J2 (PANSTARRS),e,156.2092,23.3295,172.0574,117.3244,0.0007756,0.95988417,0.1175,02/21.0/2022,2000,g 12.0,4.0
# From MPEC 2021-S45
P/2021 J3 (ATLAS),e,14.5489,111.2049,125.9766,8.942255,0.0368581,0.45026203,35.4518,02/21.0/2022,2000,g  7.0,4.0
# From MPEC 2022-C56
C/2021 K1 (ATLAS),e,16.2758,140.9041,184.2812,12.70437,0.0217658,0.80340525,6.3671,02/21.0/2022,2000,g 11.0,4.0
# From MPEC 2021-R75
C/2021 K2 (MASTER),h,09/09.2864/2021,100.8375,282.2482,343.3377,1.000579,5.466768,2000,8.0,4.0
# From MPEC 2021-U31
C/2021 K3 (Catalina),h,02/02.7025/2022,134.7763,114.4509,181.9971,1.003264,5.229847,2000,10.0,4.0
# From MPEC 2021-W31
P/2021 L2 (Leonard),e,21.0690,266.6593,51.5220,4.050967,0.1208832,0.52150605,25.5709,02/21.0/2022,2000,g 17.0,4.0
# From MPEC 2021-WD8
C/2021 L3 (Borisov),h,02/14.0213/2022,78.5798,344.9682,91.6153,1.001310,8.457342,2000,6.0,4.0
# From MPEC 2021-R75
P/2021 L4 (PANSTARRS),e,16.9614,243.2242,234.5820,3.164979,0.1750442,0.11855286,157.7547,02/21.0/2022,2000,g 13.5,4.0
# From MPEC 2021-P47
P/2021 N1 (ZTF),e,11.5054,301.1658,21.1966,2.977127,0.1918704,0.67673965,49.7816,02/21.0/2022,2000,g 19.0,4.0
# From MPEC 2022-CN4
P/2021 N2 (Fuls),e,13.0629,221.7425,177.3470,6.932750,0.0539940,0.45236504,5.3826,02/21.0/2022,2000,g  9.5,4.0
# From MPEC 2021-W31
C/2021 N3 (PANSTARRS),e,26.7494,337.4946,304.6515,161.0311,0.0004823,0.96454667,0.2656,02/21.0/2022,2000,g  8.5,4.0
# From MPEC 2022-A21
